SL-14 R/B               
1 16496U 86006B   26078.21150350  .00000704  00000+0  72285-4 0  9994
2 16496  82.5238 250.7728 0075229 240.6285 118.7405 14.86828666150624
COSMOS 1743             
1 16719U 86034A   26078.20628294  .00031027  00000+0  39385-3 0  9994
2 16719  82.5283  63.8345 0002391 208.9636 151.1488 15.59260213181734
SL-14 R/B               
1 16792U 86046B   26078.23700820  .00000430  00000+0  46659-4 0  9994
2 16792  82.4788  71.1577 0022693 192.6850 167.3798 14.85599431127825
SL-14 R/B               
1 16882U 86055B   26078.16433067  .00000390  00000+0  42142-4 0  9990
2 16882  82.5183 117.7675 0017533 303.5139 114.8616 14.85650975120775
AJISAI (EGS)            
1 16908U 86061A   26078.28629603 -.00000104  00000+0 -44051-4 0  9998
2 16908  50.0091  63.8367 0011302 311.7860 181.5544 12.44515698469199
SL-14 R/B               
1 17567U 87024B   26078.06493487  .00000421  00000+0  45196-4 0  9996
2 17567  82.5244  83.9491 0017052 226.3165 133.6639 14.86140912 89528
COSMOS 1833             
1 17589U 87027A   26078.06293902 -.00000226  00000+0 -94825-4 0  9991
2 17589  70.9199 306.3190 0023784 201.0689 158.9454 14.13051840 11644
SL-16 R/B               
1 17590U 87027B   26078.22118484 -.00000082  00000+0 -17031-4 0  9996
2 17590  70.9992 256.4076 0003066 120.6455 239.4971 14.17166753 16696
SL-14 R/B               
1 17912U 87038B   26078.06472930  .00000405  00000+0  44117-4 0  9999
2 17912  82.4986 287.9744 0020386 130.7537 229.5453 14.85377413 80624
COSMOS 1844             
1 17973U 87041A   26078.22958612  .00000040  00000+0  45595-4 0  9990
2 17973  70.9008  14.0537 0030504   3.9431 356.1925 14.14551297  4931
SL-14 R/B               
1 18153U 87055B   26078.24202205  .00000418  00000+0  45376-4 0  9994
2 18153  82.5025 340.0308 0020280 346.4215  13.6452 14.85639418 71353
COSMOS 1867             
1 18187U 87060A   26078.29174454 -.00000042  00000+0  21764-4 0  9995
2 18187  65.0096 279.8141 0014636 279.2397  80.7032 14.31504480 21311
SL-14 R/B               
1 18749U 88001B   26078.30537789  .00000486  00000+0  53318-4 0  9992
2 18749  82.5160 186.3188 0017503 202.1781 157.8680 14.85538764 43457
COSMOS 1933             
1 18958U 88020A   26077.95255345  .00003589  00000+0  17470-3 0  9995
2 18958  82.5102 241.7445 0004605 151.5918 208.5567 15.18067830 51630
SL-3 R/B                
1 19046U 88032B   26078.21250688  .00003817  00000+0  17900-3 0  9994
2 19046  97.5202  61.4307 0025280 196.8547 163.1851 15.20012686 53559
SL-16 R/B               
1 19120U 88039B   26078.28137158 -.00000054  00000+0 -28637-5 0  9990
2 19120  71.0149  48.2642 0023241 320.4943  39.4487 14.19617815959742
COSMOS 1953             
1 19210U 88050A   26078.24840205  .00005376  00000+0  19122-3 0  9990
2 19210  82.5094 148.6337 0012668  92.6112 267.6578 15.28675851 39246
