[{"OBJECT_NAME":"SL-14 R/B","OBJECT_ID":"1986-006B","EPOCH":"2026-03-19T05:04:33.902400","MEAN_MOTION":14.86828666,"ECCENTRICITY":0.00752297,"INCLINATION":82.5238,"RA_OF_ASC_NODE":250.7728,"ARG_OF_PERICENTER":240.6285,"MEAN_ANOMALY":118.7405,"EPHEMERIS_TYPE":0,"CLASSIFICATION_TYPE":"U","NORAD_CAT_ID":16496,"ELEMENT_SET_NO":999,"REV_AT_EPOCH":15062,"BSTAR":7.2284581e-5,"MEAN_MOTION_DOT":7.04e-6,"MEAN_MOTION_DDOT":0},{"OBJECT_NAME":"COSMOS 1743","OBJECT_ID":"1986-034A","EPOCH":"2026-03-19T04:57:02.846016","MEAN_MOTION":15.59260213,"ECCENTRICITY":0.00023915,"INCLINATION":82.5283,"RA_OF_ASC_NODE":63.8345,"ARG_OF_PERICENTER":208.9636,"MEAN_ANOMALY":151.1488,"EPHEMERIS_TYPE":0,"CLASSIFICATION_TYPE":"U","NORAD_CAT_ID":16719,"ELEMENT_SET_NO":999,"REV_AT_EPOCH":18173,"BSTAR":0.00039384899,"MEAN_MOTION_DOT":0.00031027,"MEAN_MOTION_DDOT":0},{"OBJECT_NAME":"SL-14 R/B","OBJECT_ID":"1986-046B","EPOCH":"2026-03-19T05:41:17.508480","MEAN_MOTION":14.85599431,"ECCENTRICITY":0.00226932,"INCLINATION":82.4788,"RA_OF_ASC_NODE":71.1577,"ARG_OF_PERICENTER":192.685,"MEAN_ANOMALY":167.3798,"EPHEMERIS_TYPE":0,"CLASSIFICATION_TYPE":"U","NORAD_CAT_ID":16792,"ELEMENT_SET_NO":999,"REV_AT_EPOCH":12782,"BSTAR":4.6659273e-5,"MEAN_MOTION_DOT":4.3e-6,"MEAN_MOTION_DDOT":0},{"OBJECT_NAME":"SL-14 R/B","OBJECT_ID":"1986-055B","EPOCH":"2026-03-19T03:56:38.169888","MEAN_MOTION":14.85650975,"ECCENTRICITY":0.00175331,"INCLINATION":82.5183,"RA_OF_ASC_NODE":117.7675,"ARG_OF_PERICENTER":303.5139,"MEAN_ANOMALY":114.8616,"EPHEMERIS_TYPE":0,"CLASSIFICATION_TYPE":"U","NORAD_CAT_ID":16882,"ELEMENT_SET_NO":999,"REV_AT_EPOCH":12077,"BSTAR":4.2142435e-5,"MEAN_MOTION_DOT":3.9e-6,"MEAN_MOTION_DDOT":0},{"OBJECT_NAME":"AJISAI (EGS)","OBJECT_ID":"1986-061A","EPOCH":"2026-03-19T06:52:15.976992","MEAN_MOTION":12.44515698,"ECCENTRICITY":0.00113026,"INCLINATION":50.0091,"RA_OF_ASC_NODE":63.8367,"ARG_OF_PERICENTER":311.786,"MEAN_ANOMALY":181.5544,"EPHEMERIS_TYPE":0,"CLASSIFICATION_TYPE":"U","NORAD_CAT_ID":16908,"ELEMENT_SET_NO":999,"REV_AT_EPOCH":46919,"BSTAR":-4.4051418e-5,"MEAN_MOTION_DOT":-1.04e-6,"MEAN_MOTION_DDOT":0},{"OBJECT_NAME":"SL-14 R/B","OBJECT_ID":"1987-024B","EPOCH":"2026-03-19T01:33:30.372768","MEAN_MOTION":14.86140912,"ECCENTRICITY":0.00170525,"INCLINATION":82.5244,"RA_OF_ASC_NODE":83.9491,"ARG_OF_PERICENTER":226.3165,"MEAN_ANOMALY":133.6639,"EPHEMERIS_TYPE":0,"CLASSIFICATION_TYPE":"U","NORAD_CAT_ID":17567,"ELEMENT_SET_NO":999,"REV_AT_EPOCH":8952,"BSTAR":4.5196222e-5,"MEAN_MOTION_DOT":4.21e-6,"MEAN_MOTION_DDOT":0},{"OBJECT_NAME":"COSMOS 1833","OBJECT_ID":"1987-027A","EPOCH":"2026-03-19T01:30:37.931328","MEAN_MOTION":14.1305184,"ECCENTRICITY":0.00237848,"INCLINATION":70.9199,"RA_OF_ASC_NODE":306.319,"ARG_OF_PERICENTER":201.0689,"MEAN_ANOMALY":158.9454,"EPHEMERIS_TYPE":0,"CLASSIFICATION_TYPE":"U","NORAD_CAT_ID":17589,"ELEMENT_SET_NO":999,"REV_AT_EPOCH":1164,"BSTAR":-9.4825281e-5,"MEAN_MOTION_DOT":-2.26e-6,"MEAN_MOTION_DDOT":0},{"OBJECT_NAME":"SL-16 R/B","OBJECT_ID":"1987-027B","EPOCH":"2026-03-19T05:18:30.370176","MEAN_MOTION":14.17166753,"ECCENTRICITY":0.00030666,"INCLINATION":70.9992,"RA_OF_ASC_NODE":256.4076,"ARG_OF_PERICENTER":120.6455,"MEAN_ANOMALY":239.4971,"EPHEMERIS_TYPE":0,"CLASSIFICATION_TYPE":"U","NORAD_CAT_ID":17590,"ELEMENT_SET_NO":999,"REV_AT_EPOCH":1669,"BSTAR":-1.7031193e-5,"MEAN_MOTION_DOT":-8.2e-7,"MEAN_MOTION_DDOT":0},{"OBJECT_NAME":"SL-14 R/B","OBJECT_ID":"1987-038B","EPOCH":"2026-03-19T01:33:12.611520","MEAN_MOTION":14.85377413,"ECCENTRICITY":0.00203863,"INCLINATION":82.4986,"RA_OF_ASC_NODE":287.9744,"ARG_OF_PERICENTER":130.7537,"MEAN_ANOMALY":229.5453,"EPHEMERIS_TYPE":0,"CLASSIFICATION_TYPE":"U","NORAD_CAT_ID":17912,"ELEMENT_SET_NO":999,"REV_AT_EPOCH":8062,"BSTAR":4.4116791e-5,"MEAN_MOTION_DOT":4.05e-6,"MEAN_MOTION_DDOT":0},{"OBJECT_NAME":"COSMOS 1844","OBJECT_ID":"1987-041A","EPOCH":"2026-03-19T05:30:36.240768","MEAN_MOTION":14.14551297,"ECCENTRICITY":0.00305047,"INCLINATION":70.9008,"RA_OF_ASC_NODE":14.0537,"ARG_OF_PERICENTER":3.9431,"MEAN_ANOMALY":356.1925,"EPHEMERIS_TYPE":0,"CLASSIFICATION_TYPE":"U","NORAD_CAT_ID":17973,"ELEMENT_SET_NO":999,"REV_AT_EPOCH":493,"BSTAR":4.5594972e-5,"MEAN_MOTION_DOT":4.0e-7,"MEAN_MOTION_DDOT":0},{"OBJECT_NAME":"SL-14 R/B","OBJECT_ID":"1987-055B","EPOCH":"2026-03-19T05:48:30.705120","MEAN_MOTION":14.85639418,"ECCENTRICITY":0.00202806,"INCLINATION":82.5025,"RA_OF_ASC_NODE":340.0308,"ARG_OF_PERICENTER":346.4215,"MEAN_ANOMALY":13.6452,"EPHEMERIS_TYPE":0,"CLASSIFICATION_TYPE":"U","NORAD_CAT_ID":18153,"ELEMENT_SET_NO":999,"REV_AT_EPOCH":7135,"BSTAR":4.5376382e-5,"MEAN_MOTION_DOT":4.18e-6,"MEAN_MOTION_DDOT":0},{"OBJECT_NAME":"COSMOS 1867","OBJECT_ID":"1987-060A","EPOCH":"2026-03-19T07:00:06.728256","MEAN_MOTION":14.3150448,"ECCENTRICITY":0.00146363,"INCLINATION":65.0096,"RA_OF_ASC_NODE":279.8141,"ARG_OF_PERICENTER":279.2397,"MEAN_ANOMALY":80.7032,"EPHEMERIS_TYPE":0,"CLASSIFICATION_TYPE":"U","NORAD_CAT_ID":18187,"ELEMENT_SET_NO":999,"REV_AT_EPOCH":2131,"BSTAR":2.1763709e-5,"MEAN_MOTION_DOT":-4.2e-7,"MEAN_MOTION_DDOT":0},{"OBJECT_NAME":"SL-14 R/B","OBJECT_ID":"1988-001B","EPOCH":"2026-03-19T07:19:44.649696","MEAN_MOTION":14.85538764,"ECCENTRICITY":0.00175039,"INCLINATION":82.516,"RA_OF_ASC_NODE":186.3188,"ARG_OF_PERICENTER":202.1781,"MEAN_ANOMALY":157.868,"EPHEMERIS_TYPE":0,"CLASSIFICATION_TYPE":"U","NORAD_CAT_ID":18749,"ELEMENT_SET_NO":999,"REV_AT_EPOCH":4345,"BSTAR":5.3318211e-5,"MEAN_MOTION_DOT":4.86e-6,"MEAN_MOTION_DDOT":0},{"OBJECT_NAME":"COSMOS 1933","OBJECT_ID":"1988-020A","EPOCH":"2026-03-18T22:51:40.618080","MEAN_MOTION":15.1806783,"ECCENTRICITY":0.0004605,"INCLINATION":82.5102,"RA_OF_ASC_NODE":241.7445,"ARG_OF_PERICENTER":151.5918,"MEAN_ANOMALY":208.5567,"EPHEMERIS_TYPE":0,"CLASSIFICATION_TYPE":"U","NORAD_CAT_ID":18958,"ELEMENT_SET_NO":999,"REV_AT_EPOCH":5163,"BSTAR":0.00017470391,"MEAN_MOTION_DOT":3.589e-5,"MEAN_MOTION_DDOT":0},{"OBJECT_NAME":"SL-3 R/B","OBJECT_ID":"1988-032B","EPOCH":"2026-03-19T05:06:00.594432","MEAN_MOTION":15.20012686,"ECCENTRICITY":0.00252805,"INCLINATION":97.5202,"RA_OF_ASC_NODE":61.4307,"ARG_OF_PERICENTER":196.8547,"MEAN_ANOMALY":163.1851,"EPHEMERIS_TYPE":0,"CLASSIFICATION_TYPE":"U","NORAD_CAT_ID":19046,"ELEMENT_SET_NO":999,"REV_AT_EPOCH":5355,"BSTAR":0.00017899554,"MEAN_MOTION_DOT":3.817e-5,"MEAN_MOTION_DDOT":0},{"OBJECT_NAME":"SL-16 R/B","OBJECT_ID":"1988-039B","EPOCH":"2026-03-19T06:45:10.504512","MEAN_MOTION":14.19617815,"ECCENTRICITY":0.00232411,"INCLINATION":71.0149,"RA_OF_ASC_NODE":48.2642,"ARG_OF_PERICENTER":320.4943,"MEAN_ANOMALY":39.4487,"EPHEMERIS_TYPE":0,"CLASSIFICATION_TYPE":"U","NORAD_CAT_ID":19120,"ELEMENT_SET_NO":999,"REV_AT_EPOCH":95974,"BSTAR":-2.86374e-6,"MEAN_MOTION_DOT":-5.4e-7,"MEAN_MOTION_DDOT":0},{"OBJECT_NAME":"COSMOS 1953","OBJECT_ID":"1988-050A","EPOCH":"2026-03-19T05:57:41.937120","MEAN_MOTION":15.28675851,"ECCENTRICITY":0.0012668,"INCLINATION":82.5094,"RA_OF_ASC_NODE":148.6337,"ARG_OF_PERICENTER":92.6112,"MEAN_ANOMALY":267.6578,"EPHEMERIS_TYPE":0,"CLASSIFICATION_TYPE":"U","NORAD_CAT_ID":19210,"ELEMENT_SET_NO":999,"REV_AT_EPOCH":3924,"BSTAR":0.00019121502,"MEAN_MOTION_DOT":5.376e-5,"MEAN_MOTION_DDOT":0}]
